SL-8 R/B                
1 19257U 88053B   26087.29691825  .00000366  00000+0  12718-3 0  9999
2 19257  74.0455  78.1640 0021480 254.9909 206.7632 14.38928686979275
COSMOS 1975             
1 19573U 88093A   26087.12438397  .00006913  00000+0  24890-3 0  9997
2 19573  82.5164  99.1720 0013379 104.4955 255.7770 15.28312271 22225
SL-14 R/B               
1 19574U 88093B   26087.26965789  .00000622  00000+0  68752-4 0  9990
2 19574  82.5338  24.6047 0020161 341.0034 178.4618 14.85678447  3771
SL-16 R/B               
1 19650U 88102B   26087.19933521 -.00000165  00000+0 -59344-4 0  9998
2 19650  70.9971 112.5510 0015084 333.8286  26.2073 14.16153627929514
INTERCOSMOS 24          
1 20261U 89080A   26087.31015449  .00000566  00000+0  16759-3 0  9993
2 20261  82.6011  92.2747 1186844 249.5606  97.4325 12.59581920669144
SL-14 R/B               
1 20262U 89080C   26087.28016693  .00000392  00000+0  10966-3 0  9993
2 20262  82.5956 161.2571 1230891 142.2771 227.1457 12.50511640662478
DELTA 1 R/B             
1 20323U 89089B   26087.17522096  .00000350  00000+0  94906-4 0  9998
2 20323  97.0693 291.6716 0070543  64.7375 296.1112 14.50677863898418
ARIANE 40 R/B           
1 20443U 90005H   26087.15910978  .00000254  00000+0  94140-4 0  9992
2 20443  98.3045 147.2668 0010947 144.5330 215.6589 14.39882225895461
DELTA 2 R/B(1)          
1 20453U 90008B   26086.96792605  .00070325  00000+0  76859-3 0  9991
2 20453  35.6038  54.6827 0078041  69.6240 291.2859 15.58359382928981
COSMOS 2058             
1 20465U 90010A   26087.11948943  .00005074  00000+0  29807-3 0  9993
2 20465  82.4687  29.2669 0007431 270.8689  89.1690 15.11484298945029
SL-14 R/B               
1 20466U 90010B   26087.16717846  .00000543  00000+0  62922-4 0  9997
2 20466  82.4996 250.0270 0018573 236.6748 123.2689 14.83585646931222
SL-14 R/B               
1 20511U 90018B   26087.06771381  .00000450  00000+0  53461-4 0  9994
2 20511  82.5236 205.9151 0016997  35.9464 324.2890 14.82162673925300
HST                     
1 20580U 90037B   26087.21101204  .00008763  00000+0  28741-3 0  9996
2 20580  28.4721 273.6275 0001668 343.6247  16.4295 15.29763624776151
SL-16 R/B               
1 20625U 90046B   26087.21845383  .00000257  00000+0  15716-3 0  9997
2 20625  70.9975 258.9963 0016324 275.3307  84.5953 14.15015839851015
COSMOS 2084             
1 20663U 90055A   26086.91892438  .00002668  00000+0  19688-3 0  9998
2 20663  62.7892 273.3985 0014196 195.6384 164.4280 15.05747385939064
SL-6 R/B(2)             
1 20666U 90055D   26087.25906564  .00002090  00000+0  16524-3 0  9990
2 20666  62.7831 190.6977 0027833 351.2759   8.7853 15.03682486940987
SL-8 R/B                
1 20775U 90078B   26087.11808867  .00012216  00000+0  36186-3 0  9995
2 20775  82.9022 234.7274 0358556 311.8564  45.2553 14.89612537812040
